[
    {
        "Altitude(m)": 702964.1449296605,
        "Argument of Periapsis(deg)": 0.011390121186627068,
        "Eccentricity": 0.0,
        "Inclination(deg)": 45.0,
        "Latitude(deg)": 19.380591402279595,
        "Longitude(deg)": -70.29352751755452,
        "Mean Anomaly(deg)": 27.896816647480822,
        "RAAN(deg)": 9.989248058541795,
        "Satellite Name": "Constellation 1 45",
        "Satellite Number": 45,
        "Semi-Major Axis(m)": 7083131.272910544,
        "Time(s)": 190
    },
    {
        "Altitude(m)": 702967.2325719553,
        "Argument of Periapsis(deg)": 0.011450069192872472,
        "Eccentricity": 0.0,
        "Inclination(deg)": 45.0,
        "Latitude(deg)": 19.421041865926107,
        "Longitude(deg)": -70.24948029809649,
        "Mean Anomaly(deg)": 27.957517787730726,
        "RAAN(deg)": 9.989191469376227,
        "Satellite Name": "Constellation 1 45",
        "Satellite Number": 45,
        "Semi-Major Axis(m)": 7083131.272910544,
        "Time(s)": 191
    },
    {
        "Altitude(m)": 702970.3345877773,
        "Argument of Periapsis(deg)": 0.01151001719911788,
        "Eccentricity": 0.0,
        "Inclination(deg)": 45.0,
        "Latitude(deg)": 19.46147939755238,
        "Longitude(deg)": -70.20540923988533,
        "Mean Anomaly(deg)": 28.018218927980616,
        "RAAN(deg)": 9.989134880210656,
        "Satellite Name": "Constellation 1 45",
        "Satellite Number": 45,
        "Semi-Major Axis(m)": 7083131.272910544,
        "Time(s)": 192
    },
    {
        "Altitude(m)": 702973.4509462952,
        "Argument of Periapsis(deg)": 0.011569965205363285,
        "Eccentricity": 0.0,
        "Inclination(deg)": 45.0,
        "Latitude(deg)": 19.501903961852303,
        "Longitude(deg)": -70.16131445323502,
        "Mean Anomaly(deg)": 28.078920068230524,
        "RAAN(deg)": 9.989078291045088,
        "Satellite Name": "Constellation 1 45",
        "Satellite Number": 45,
        "Semi-Major Axis(m)": 7083131.272910544,
        "Time(s)": 193
    },
    {
        "Altitude(m)": 702976.5816166342,
        "Argument of Periapsis(deg)": 0.01162991321160869,
        "Eccentricity": 0.0,
        "Inclination(deg)": 45.0,
        "Latitude(deg)": 19.542315523472798,
        "Longitude(deg)": -70.11719554413969,
        "Mean Anomaly(deg)": 28.139621208480424,
        "RAAN(deg)": 9.989021701879519,
        "Satellite Name": "Constellation 1 45",
        "Satellite Number": 45,
        "Semi-Major Axis(m)": 7083131.272910544,
        "Time(s)": 194
    },
    {
        "Altitude(m)": 702979.7265678622,
        "Argument of Periapsis(deg)": 0.011689861217854095,
        "Eccentricity": 0.0,
        "Inclination(deg)": 45.0,
        "Latitude(deg)": 19.582714047013337,
        "Longitude(deg)": -70.07305262285534,
        "Mean Anomaly(deg)": 28.200322348730325,
        "RAAN(deg)": 9.988965112713949,
        "Satellite Name": "Constellation 1 45",
        "Satellite Number": 45,
        "Semi-Major Axis(m)": 7083131.272910544,
        "Time(s)": 195
    },
    {
        "Altitude(m)": 702982.8857689882,
        "Argument of Periapsis(deg)": 0.0117498092240995,
        "Eccentricity": 0.0,
        "Inclination(deg)": 45.0,
        "Latitude(deg)": 19.623099497026082,
        "Longitude(deg)": -70.028885631512,
        "Mean Anomaly(deg)": 28.261023488980218,
        "RAAN(deg)": 9.988908523548378,
        "Satellite Name": "Constellation 1 45",
        "Satellite Number": 45,
        "Semi-Major Axis(m)": 7083131.272910544,
        "Time(s)": 196
    },
    {
        "Altitude(m)": 702986.0591889671,
        "Argument of Periapsis(deg)": 0.011809757230344905,
        "Eccentricity": 0.0,
        "Inclination(deg)": 45.0,
        "Latitude(deg)": 19.663471838015692,
        "Longitude(deg)": -69.98469451221092,
        "Mean Anomaly(deg)": 28.321724629230115,
        "RAAN(deg)": 9.98885193438281,
        "Satellite Name": "Constellation 1 45",
        "Satellite Number": 45,
        "Semi-Major Axis(m)": 7083131.272910544,
        "Time(s)": 197
    },
    {
        "Altitude(m)": 702989.2467967073,
        "Argument of Periapsis(deg)": 0.011869705236590313,
        "Eccentricity": 0.0,
        "Inclination(deg)": 45.0,
        "Latitude(deg)": 19.703831034439254,
        "Longitude(deg)": -69.9404792070245,
        "Mean Anomaly(deg)": 28.38242576948002,
        "RAAN(deg)": 9.988795345217241,
        "Satellite Name": "Constellation 1 45",
        "Satellite Number": 45,
        "Semi-Major Axis(m)": 7083131.272910544,
        "Time(s)": 198
    },
    {
        "Altitude(m)": 702992.4485610486,
        "Argument of Periapsis(deg)": 0.011929653242835719,
        "Eccentricity": 0.0,
        "Inclination(deg)": 45.0,
        "Latitude(deg)": 19.7441770507061,
        "Longitude(deg)": -69.89623965799645,
        "Mean Anomaly(deg)": 28.44312690972992,
        "RAAN(deg)": 9.98873875605167,
        "Satellite Name": "Constellation 1 45",
        "Satellite Number": 45,
        "Semi-Major Axis(m)": 7083131.272910544,
        "Time(s)": 199
    }
]